GORIZONT 1 [-]          
1 11158U 78118A   22215.42449565 -.00000034  00000+0  00000+0 0  9998
2 11158  11.0896 203.5911 3472693 283.7189  40.3509  1.00303378108764
GORIZONT 2 [-]          
1 11440U 79062A   22215.98659128  .00000059  00000+0  00000+0 0  9996
2 11440   9.1772 301.2925 0002613 231.1727 194.9496  1.00271710123833
GORIZONT 3 [-]          
1 11648U 79105A   22215.79933163  .00000101  00000+0  00000+0 0  9995
2 11648   9.3368 302.7250 0014152 210.0511 139.4762  1.00328090108287
GORIZONT 4 [-]          
1 11841U 80049A   22214.86671407  .00000035  00000+0  00000+0 0  9992
2 11841  10.4878 308.4890 0001245 165.8948 201.9476  0.98628066219602
GORIZONT 5 [-]          
1 13092U 82020A   22215.82271560 -.00000087  00000+0  00000+0 0  9994
2 13092  11.4750 313.7564 0034487 210.6500 194.2349  0.98531552107675
GORIZONT 6 [-]          
1 13624U 82103A   22216.49948198  .00000099  00000+0  00000+0 0  9991
2 13624  10.3935 313.7815 0003210 172.3205 194.8008  1.00271716106779
GORIZONT 7 [-]          
1 14160U 83066A   22215.99873490  .00000008  00000+0  00000+0 0  9992
2 14160  12.0496 323.0951 0008236 314.5083 114.1213  0.98346395140894
GORIZONT 8 [-]          
1 14532U 83118A   22215.06680170 -.00000191  00000+0  00000+0 0  9996
2 14532  12.2233 324.9492 0031015 148.9007 198.5034  0.98271558106644
GORIZONT 9 [-]          
1 14940U 84041A   22215.79750826 -.00000213  00000+0  00000+0 0  9996
2 14940  11.4149 322.9900 0004863 199.9023 165.8695  1.00234573107776
GORIZONT 10 [-]         
1 15144U 84078A   22216.42560344  .00000120  00000+0  00000+0 0  9994
2 15144  11.5071 324.0100 0001627 134.8400 219.6828  1.00198117140445
GORIZONT 11 [-]         
1 15484U 85007A   22215.80395324 -.00000122  00000+0  00000+0 0  9992
2 15484  11.6878 325.9875 0005224 148.3933 202.4420  1.00395107138459
GORIZONT 12 [-]         
1 16769U 86044A   22215.80386604 -.00000074  00000+0  00000+0 0  9998
2 16769  12.2998 331.3440 0002009 171.7198 173.0748  1.00196733133080
GORIZONT 13 [-]         
1 17083U 86090A   22216.34077396 -.00000065  00000+0  00000+0 0  9994
2 17083  14.1680 338.4869 0012010 343.9817   0.4697  0.96725687105003
GORIZONT 14 [-]         
1 17969U 87040A   22215.33985302 -.00000048  00000+0  00000+0 0  9997
2 17969  13.1253 329.9213 0032667 171.7525 200.0039  0.97658072106050
GORIZONT 15 [-]         
1 19017U 88028A   22215.50683492 -.00000119  00000+0  00000+0 0  9993
2 19017  14.4531 341.3305 0038411 153.7089  23.7407  0.97828825105678
GORIZONT 16 [-]         
1 19397U 88071A   22216.20876876 -.00000290  00000+0  00000+0 0  9990
2 19397  13.3040 340.0130 0014921  68.1248 286.4243  0.99978244124108
GORIZONT 17 [-]         
1 19765U 89004A   22215.40988288  .00000022  00000+0  00000+0 0  9990
2 19765  13.8466 343.3570 0024823 131.2445 238.5070  0.99063986121573
GORIZONT 18 [-]         
1 20107U 89052A   22215.43868816  .00000030  00000+0  00000+0 0  9991
2 20107  13.8881 344.6186 0032600 318.5185  55.5069  0.99397779120367
GORIZONT 19 [-]         
1 20263U 89081A   22215.49355052  .00000101  00000+0  00000+0 0  9994
2 20263  13.6186 343.8119 0003792 181.8959  11.3771  1.00329606 33161
GORIZONT 20 [-]         
1 20659U 90054A   22215.97590608 -.00000293  00000+0  00000+0 0  9999
2 20659  14.0507 346.6368 0007292 159.7864 254.1073  1.00281831117518
GORIZONT 21 [-]         
1 20923U 90094A   22215.41839583 -.00000155  00000+0  00000+0 0  9991
2 20923  14.0630 347.4119 0005019 186.3096 189.1634  1.00388268116274
GORIZONT 22 [-]         
1 20953U 90102A   22215.74500580 -.00000289  00000+0  00000+0 0  9990
2 20953  14.0209 347.7763 0002893  43.1378 329.4228  1.00287823116203
GORIZONT 23 [-]         
1 21533U 91046A   22215.37612837 -.00000021  00000+0  00000+0 0  9995
2 21533  14.7752 351.9166 0001972 335.2136 209.0447  0.98906397 32704
GORIZONT 24 [-]         
1 21759U 91074A   22215.54337139 -.00000084  00000+0  00000+0 0  9993
2 21759  14.9268 353.8128 0017171 219.8804 141.9100  0.98443872111122
GORIZONT 25 [-]         
1 21922U 92017A   22215.00980985  .00000110  00000+0  00000+0 0  9996
2 21922  14.4701 353.1560 0030185  82.7533 290.5055  0.99844889110820
GORIZONT 26 [-]         
1 22041U 92043A   22215.20742722 -.00000265  00000+0  00000+0 0  9997
2 22041  14.6372 355.1496 0029690 231.0404 122.2761  0.99245513109433
GORIZONT 27 [-]         
1 22245U 92082A   22215.59193463 -.00000209  00000+0  00000+0 0  9998
2 22245  14.5543 354.7499 0011728  18.0210 241.7774  1.00142167112953
GORIZONT 28 [-]         
1 22880U 93069A   22215.84415264 -.00000149  00000+0  00000+0 0  9996
2 22880  14.6882 358.6022 0035954 130.4862  43.6775  0.99649336105048
GORIZONT 29 [-]         
1 22907U 93072A   22215.59979948  .00000028  00000+0  00000+0 0  9991
2 22907  14.6011 358.0720 0008958 355.6777 184.7004  1.00154739105011
GORIZONT 30 [-]         
1 23108U 94030A   22215.74570340 -.00000268  00000+0  00000+0 0  9997
2 23108  14.6125 358.9794 0003043 133.7754 231.1154  1.00290392103298
GORIZONT 31 [-]         
1 23775U 96005A   22215.84432703 -.00000190  00000+0  00000+0 0  9996
2 23775  14.5123   5.1763 0018334 196.5911 332.4882  0.99885548 96938
GORIZONT 32 [-]         
1 23880U 96034A   22215.54659779  .00000075  00000+0  00000+0 0  9997
2 23880  14.4598   5.6991 0008213   2.3287   5.1128  1.00155567 95876
GORIZONT 33 [-]         
1 26372U 00029A   22215.27936751 -.00000257  00000+0  00000+0 0  9996
2 26372  13.1540  16.8574 0004906  95.4080 263.4074  1.00323941 81246
